satname,norad_id,inclination_deg,eccentricity,mean_motion_rev_per_day,perigee_km,apogee_km,l1,l2
STARLINK-1202,45183,53.161,0.000135,15.30198022,474.2957720504728,476.14617870382426,1 45183U 20012F   26079.72671321 -.00000953  00000+0 -20044-4 0  9991,2 45183  53.1610 347.9862 0001350  79.9581 280.1573 15.30198022336645
STARLINK-1216,45185,53.1604,0.0001563,15.30202728,474.13574645981043,476.2781017704883,1 45185U 20012H   26079.71722977  .00000722  00000+0  36517-4 0  9990,2 45185  53.1604 348.0089 0001563  82.1630 277.9548 15.30202728336588
STARLINK-1225,45187,53.1606,0.0002649,15.30201412,473.39540159870194,477.026305291457,1 45187U 20012K   26079.71413406 -.00000805  00000+0 -15030-4 0  9997,2 45187  53.1606 348.4640 0002649  83.4077 276.7226 15.30201412336628
STARLINK-1230,45189,53.1612,0.0001312,15.30189059,474.34857339028804,476.1469015453995,1 45189U 20012M   26079.46236917  .00001337  00000+0  57262-4 0  9993,2 45189  53.1612 349.6928 0001312  88.0193 272.0959 15.30189059333817
STARLINK-1234,45190,53.0422,0.000486,15.64624237,371.03797067732376,377.6013585553301,1 45190U 20012N   26079.26155345  .00037480  00000+0  38390-3 0  9996,2 45190  53.0422 273.5152 0004860 327.2619  32.8093 15.64624237337536
STARLINK-1269,45197,53.1617,0.0001507,15.30195295,474.1963154632949,476.26192001118034,1 45197U 20012V   26079.13262316 -.00002117  00000+0 -59377-4 0  9996,2 45197  53.1617 351.0835 0001507  96.1935 263.9238 15.30195295336513
STARLINK-1154,45198,53.0485,0.0006891,15.47904283,418.1711915179367,427.54432249204183,1 45198U 20012W   26079.86181153  .00071731  00000+0  13495-2 0  9991,2 45198  53.0485 316.6296 0006891 135.1939 224.9626 15.47904283337021
STARLINK-1199,45201,53.1597,0.0001202,15.30195386,474.4050714515697,476.0526206009554,1 45201U 20012Z   26079.42847594  .00000495  00000+0  28829-4 0  9994,2 45201  53.1597 333.9577 0001202  89.3780 270.7358 15.30195386336804
STARLINK-1209,45206,53.0449,0.0007206,15.52998981,403.08551665222785,412.86566211604713,1 45206U 20012AE  26079.55709996  .00088559  00000+0  13862-2 0  9992,2 45206  53.0449 281.1276 0007206 308.1862  51.8497 15.52998981336603
STARLINK-1231,45212,53.0464,0.0004376,15.2205003,496.64820714747384,502.6676532703932,1 45212U 20012AL  26079.38604741  .00022446  00000+0  98027-3 0  9992,2 45212  53.0464 326.6302 0004376 132.0153 228.1216 15.22050030336850
STARLINK-1271,45217,53.1603,0.0001124,15.30207243,474.4231288703704,475.9637575540046,1 45217U 20012AR  26079.88358734  .00001748  00000+0  71113-4 0  9990,2 45217  53.1603 331.9683 0001124  60.2878 299.8235 15.30207243336873
STARLINK-1191,45222,53.1588,7.44e-05,15.31075711,472.09190560467687,473.11129550844,1 45222U 20012AW  26079.90076953  .00044289  00000+0  14585-2 0  9994,2 45222  53.1588 306.7214 0000744 142.2541 217.8512 15.31075711337239
STARLINK-1212,45223,53.0483,0.000516,15.5418357,401.0270748875364,408.0267840627539,1 45223U 20012AX  26079.85389473  .00094612  00000+0  14178-2 0  9996,2 45223  53.0483 296.2558 0005160 163.6512 196.4665 15.54183570337373
STARLINK-1215,45225,53.1598,0.0001625,15.30214328,474.05862616832474,476.28595168722677,1 45225U 20012AZ  26079.88983909  .00003737  00000+0  13817-3 0  9993,2 45225  53.1598 306.2804 0001625  84.4238 275.6948 15.30214328337190
STARLINK-1221,45227,53.0652,0.0003592,15.42290456,436.9023426686472,441.8000261803363,1 45227U 20012BB  26079.41055617  .00012358  00000+0  29168-3 0  9995,2 45227  53.0652 218.7959 0003592  64.7558 295.3819 15.42290456338366
STARLINK-1222,45228,53.0545,0.0003975,15.50191527,413.4656494293049,418.8671206203999,1 45228U 20012BC  26079.58323479  .00021793  00000+0  38656-3 0  9993,2 45228  53.0545 290.5565 0003975 119.3443 240.7963 15.50191527337310
STARLINK-1226,45229,53.1571,9.71e-05,15.31103006,471.8549826779581,473.18538030260333,1 45229U 20012BD  26079.91668981  .00025500  00000+0  84622-3 0  9995,2 45229  53.1571 306.4377 0000971 116.5268 245.7765 15.31103006  5801
STARLINK-1227,45230,53.1581,6.88e-05,15.31751436,470.1154792881889,471.0578636653836,1 45230U 20012BE  26079.86742788  .00030646  00000+0  99368-3 0  9999,2 45230  53.1581 306.8573 0000688 113.1108 246.9966 15.31751436337245
STARLINK-1246,45235,53.1612,0.0001198,15.30180144,474.4533178168431,476.09539517786015,1 45235U 20012BK  26079.46862414  .00005709  00000+0  20485-3 0  9995,2 45235  53.1612 349.1817 0001198  91.7391 268.3747 15.30180144336625
STARLINK-1270,45237,53.0472,0.0002902,15.48777082,418.3295180451196,422.275332287486,1 45237U 20012BM  26079.88109995  .00077707  00000+0  14173-2 0  9994,2 45237  53.0472 294.0173 0002902 153.0671 207.0487 15.48777082337400
STARLINK-1279,45360,53.043,0.0002298,15.59221448,388.35379839083726,391.4643923762751,1 45360U 20019A   26079.60147522  .00134437  00000+0  16606-2 0  9993,2 45360  53.0430  45.6754 0002298 127.2041 232.9181 15.59221448332379
STARLINK-1301,45361,53.0428,4.94e-05,15.66139872,369.6291365550496,370.2958487849246,1 45361U 20019B   26079.64020475  .00054846  00000+0  52557-3 0  9996,2 45361  53.0428  50.2764 0000494 191.2453 168.8551 15.66139872332324
STARLINK-1262,45366,53.156,0.0001146,15.29358057,476.94443030449384,478.5157950467201,1 45366U 20019G   26079.38935478  .00000858  00000+0  42041-4 0  9992,2 45366  53.1560 115.4726 0001146  85.2835 274.8296 15.29358057331397
STARLINK-1273,45367,53.0501,0.000371,15.45828089,426.4205549845401,431.471410557755,1 45367U 20019H   26079.78946191  .00069101  00000+0  13982-2 0  9997,2 45367  53.0501 101.9424 0003710  38.5685 321.5586 15.45828089331612
STARLINK-1276,45368,53.0728,0.0001488,15.11247721,531.3654347374377,533.4220086802188,1 45368U 20019J   26079.79933210  .00018690  00000+0  11133-2 0  9990,2 45368  53.0728 116.4352 0001488  90.0314 270.0848 15.11247721331415
STARLINK-1277,45369,53.0496,0.0005667,15.50689084,410.8634439631587,418.5624600987903,1 45369U 20019K   26079.46330899  .00059739  00000+0  10223-2 0  9997,2 45369  53.0496 100.9293 0005667  44.8359 315.3106 15.50689084331605
STARLINK-1281,45370,53.1599,0.0001276,15.30197037,474.34942756458076,476.0984052704498,1 45370U 20019L   26079.38306918  .00001679  00000+0  68806-4 0  9997,2 45370  53.1599 115.6192 0001276  93.0988 267.0159 15.30197037331396
STARLINK-1300,45374,53.1596,0.0001642,15.29823395,475.2142696548317,477.46527982765565,1 45374U 20019Q   26079.79688852  .00056626  00000+0  19318-2 0  9990,2 45374  53.1596 113.6995 0001642  66.5794 293.5379 15.29823395331459
STARLINK-1302,45375,53.0519,0.0003944,15.55484848,398.0700116682874,403.41719268728593,1 45375U 20019R   26079.76304362  .00083341  00000+0  11936-2 0  9991,2 45375  53.0519  98.2559 0003944   1.5547 358.5474 15.55484848331666
STARLINK-1304,45376,53.0488,0.0003559,15.50038645,414.1948791389268,419.0313822819653,1 45376U 20019S   26079.74118089  .00087919  00000+0  15309-2 0  9992,2 45376  53.0488  96.5273 0003559  26.9473 333.1719 15.50038645331685
STARLINK-1305,45377,53.0436,0.0003613,15.55080888,399.46787443533503,404.3671418229096,1 45377U 20019T   26079.70658916  .00107904  00000+0  15616-2 0  9995,2 45377  53.0436  79.0580 0003613 111.1876 248.9521 15.55080888331934
STARLINK-1319,45379,53.0439,0.0002963,15.66411838,367.1821535897179,371.1806144640923,1 45379U 20019V   26079.84021624  .00052067  00000+0  49390-3 0  9998,2 45379  53.0439  74.9121 0002963  79.6994 280.4354 15.66411838332009
STARLINK-1266,45383,53.0498,0.000507,15.47148172,421.6241706783585,428.5226260222862,1 45383U 20019Z   26079.71064337  .00090412  00000+0  17404-2 0  9993,2 45383  53.0498  80.3668 0005070  54.4787 305.6692 15.47148172331909
STARLINK-1267,45384,53.05,0.0002,15.51630276,410.60770376608343,413.3237448558084,1 45384U 20019AA  26079.70474933  .00101235  00000+0  16621-2 0  9996,2 45384  53.0500  74.0883 0002000 332.3662  27.7240 15.51630276331999
STARLINK-1272,45386,53.0452,0.0002666,15.58098124,391.3564630568544,394.96691951904904,1 45386U 20019AC  26079.89797381  .00054849  00000+0  71772-3 0  9990,2 45386  53.0452  55.3848 0002666 133.3171 226.8063 15.58098124332276
STARLINK-1274,45387,53.0276,0.0002241,15.48886951,418.4574687294353,421.50438518429746,1 45387U 20019AD  26079.89120517  .00087767  00000+0  15916-2 0  9994,2 45387  53.0276  49.3142 0002241 259.9458 100.1297 15.48886951332357
STARLINK-1280,45388,53.0422,0.00018,15.66744674,367.01141397945685,369.4401045727964,1 45388U 20019AE  26079.69037343  .00057758  00000+0  53971-3 0  9998,2 45388  53.0422  68.3957 0001800  93.1685 266.9536 15.66744674332066
STARLINK-1283,45389,53.0425,0.0002914,15.58547604,389.8869714783923,393.832525583437,1 45389U 20019AF  26079.30680699  .00035268  00000+0  45718-3 0  9997,2 45389  53.0425  58.4450 0002914 280.2976  79.7707 15.58547604332185
STARLINK-1284,45390,53.0476,0.0004949,15.53614445,402.8256996564678,409.54081984957156,1 45390U 20019AG  26079.29832682  .00065167  00000+0  10030-2 0  9997,2 45390  53.0476  79.8684 0004949  55.4766 304.6710 15.53614445331870
STARLINK-1297,45395,53.0469,0.0005858,15.56219423,394.6404135189605,402.58005057602804,1 45395U 20019AM  26079.80646927  .00089178  00000+0  12412-2 0  9998,2 45395  53.0469  76.9312 0005858  59.4004 300.7584 15.56219423331148
STARLINK-1307,45397,53.0545,0.0002857,15.50528325,413.2416149872124,417.1233177302902,1 45397U 20019AP  26079.31974779  .00017725  00000+0  31235-3 0  9999,2 45397  53.0545  79.7164 0002857  59.3868 300.7421 15.50528325331704
STARLINK-1255,45399,53.0424,0.0001797,15.53858288,404.2544623878821,406.69249199338356,1 45399U 20019AR  26079.62989506  .00104057  00000+0  15759-2 0  9996,2 45399  53.0424  50.0026 0001797  56.3322 303.7859 15.53858288332138
STARLINK-1260,45404,53.1595,0.0001058,15.30235061,474.38531201853584,475.83545916532785,1 45404U 20019AW  26079.40932628  .00008979  00000+0  31458-3 0  9993,2 45404  53.1595  79.4486 0001058  97.7302 262.3819 15.30235061331618
